{
  "type": "FeatureCollection",
  "features": [
    {
      "type": "Feature",
      "properties": {
        "norad_id": 65731,
        "name": "1998-067XK",
        "group": "stations",
        "lat": 49.73007306774491,
        "lon": 165.63629465706777,
        "alt_km": 362.5620201184547,
        "timestamp": "2025-12-20T18:51:30.476915+00:00",
        "meta_object_name": "1998-067XK",
        "meta_object_id": "1998-067XK",
        "meta_epoch": "2025-12-20T00:10:02.026560",
        "meta_mean_motion": 15.67078773,
        "meta_eccentricity": 0.00047639,
        "meta_inclination": 51.6294,
        "meta_ra_of_asc_node": 100.3244,
        "meta_arg_of_pericenter": 292.7833,
        "meta_mean_anomaly": 67.2659,
        "meta_ephemeris_type": 0,
        "meta_classification_type": "U",
        "meta_norad_cat_id": 65731,
        "meta_element_set_no": 999,
        "meta_rev_at_epoch": 1428,
        "meta_bstar": 0.00070175188,
        "meta_mean_motion_dot": 0.00076617,
        "meta_mean_motion_ddot": 0,
        "tle_line1": "1 65731U 98067XK  25354.00696790  .00076617  00000+0  70175-3 0  9997",
        "tle_line2": "2 65731  51.6294 100.3244 0004763 292.7833  67.2659 15.67078773 14280"
      },
      "geometry": {
        "type": "Point",
        "coordinates": [
          165.63629465706777,
          49.73007306774491
        ]
      }
    },
    {
      "type": "Feature",
      "properties": {
        "norad_id": 65732,
        "name": "RSP-03",
        "group": "stations",
        "lat": 30.158477418201056,
        "lon": -111.94984448695867,
        "alt_km": 356.9701599513028,
        "timestamp": "2025-12-20T18:51:30.476925+00:00",
        "meta_object_name": "RSP-03",
        "meta_object_id": "1998-067XL",
        "meta_epoch": "2025-12-19T10:11:34.022112",
        "meta_mean_motion": 15.70283101,
        "meta_eccentricity": 0.0005658,
        "meta_inclination": 51.6265,
        "meta_ra_of_asc_node": 102.4221,
        "meta_arg_of_pericenter": 294.5755,
        "meta_mean_anomaly": 65.4652,
        "meta_ephemeris_type": 0,
        "meta_classification_type": "U",
        "meta_norad_cat_id": 65732,
        "meta_element_set_no": 999,
        "meta_rev_at_epoch": 1421,
        "meta_bstar": 0.00084699,
        "meta_mean_motion_dot": 0.00106087,
        "meta_mean_motion_ddot": 0,
        "tle_line1": "1 65732U 98067XL  25353.42469933  .00106087  00000+0  84699-3 0  9991",
        "tle_line2": "2 65732  51.6265 102.4221 0005658 294.5755  65.4652 15.70283101 14217"
      },
      "geometry": {
        "type": "Point",
        "coordinates": [
          -111.94984448695867,
          30.158477418201056
        ]
      }
    },
    {
      "type": "Feature",
      "properties": {
        "norad_id": 65733,
        "name": "GHS-01",
        "group": "stations",
        "lat": -50.28422567719526,
        "lon": -13.750727686206428,
        "alt_km": 338.1792946833284,
        "timestamp": "2025-12-20T18:51:30.476935+00:00",
        "meta_object_name": "GHS-01",
        "meta_object_id": "1998-067XM",
        "meta_epoch": "2025-12-20T11:41:11.076000",
        "meta_mean_motion": 15.78117355,
        "meta_eccentricity": 0.00085452,
        "meta_inclination": 51.6277,
        "meta_ra_of_asc_node": 95.2602,
        "meta_arg_of_pericenter": 329.3713,
        "meta_mean_anomaly": 30.6788,
        "meta_ephemeris_type": 0,
        "meta_classification_type": "U",
        "meta_norad_cat_id": 65733,
        "meta_element_set_no": 999,
        "meta_rev_at_epoch": 1440,
        "meta_bstar": 0.0011084718,
        "meta_mean_motion_dot": 0.00197582,
        "meta_mean_motion_ddot": 0,
        "tle_line1": "1 65733U 98067XM  25354.48693375  .00197582  00000+0  11085-2 0  9996",
        "tle_line2": "2 65733  51.6277  95.2602 0008545 329.3713  30.6788 15.78117355 14402"
      },
      "geometry": {
        "type": "Point",
        "coordinates": [
          -13.750727686206428,
          -50.28422567719526
        ]
      }
    },
    {
      "type": "Feature",
      "properties": {
        "norad_id": 65941,
        "name": "YOTSUBA-KULOVER",
        "group": "stations",
        "lat": 6.852401496663223,
        "lon": 104.96804997623353,
        "alt_km": 385.1335455407034,
        "timestamp": "2025-12-20T18:51:30.476945+00:00",
        "meta_object_name": "YOTSUBA-KULOVER",
        "meta_object_id": "1998-067XN",
        "meta_epoch": "2025-12-20T11:08:10.276512",
        "meta_mean_motion": 15.60441767,
        "meta_eccentricity": 0.00018566,
        "meta_inclination": 51.6291,
        "meta_ra_of_asc_node": 101.1247,
        "meta_arg_of_pericenter": 327.316,
        "meta_mean_anomaly": 32.7719,
        "meta_ephemeris_type": 0,
        "meta_classification_type": "U",
        "meta_norad_cat_id": 65941,
        "meta_element_set_no": 999,
        "meta_rev_at_epoch": 1106,
        "meta_bstar": 0.00062678639,
        "meta_mean_motion_dot": 0.0005237,
        "meta_mean_motion_ddot": 0,
        "tle_line1": "1 65941U 98067XN  25354.46400783  .00052370  00000+0  62679-3 0  9995",
        "tle_line2": "2 65941  51.6291 101.1247 0001856 327.3160  32.7719 15.60441767 11067"
      },
      "geometry": {
        "type": "Point",
        "coordinates": [
          104.96804997623353,
          6.852401496663223
        ]
      }
    },
    {
      "type": "Feature",
      "properties": {
        "norad_id": 65942,
        "name": "BOTAN",
        "group": "stations",
        "lat": 51.38482569325393,
        "lon": -178.64328421470753,
        "alt_km": 369.2006948386579,
        "timestamp": "2025-12-20T18:51:30.476955+00:00",
        "meta_object_name": "BOTAN",
        "meta_object_id": "1998-067XP",
        "meta_epoch": "2025-12-20T13:53:44.237472",
        "meta_mean_motion": 15.64441775,
        "meta_eccentricity": 0.00029505,
        "meta_inclination": 51.6283,
        "meta_ra_of_asc_node": 99.6415,
        "meta_arg_of_pericenter": 304.2475,
        "meta_mean_anomaly": 55.824,
        "meta_ephemeris_type": 0,
        "meta_classification_type": "U",
        "meta_norad_cat_id": 65942,
        "meta_element_set_no": 999,
        "meta_rev_at_epoch": 1109,
        "meta_bstar": 0.00083574073,
        "meta_mean_motion_dot": 0.00082185,
        "meta_mean_motion_ddot": 0,
        "tle_line1": "1 65942U 98067XP  25354.57898423  .00082185  00000+0  83574-3 0  9994",
        "tle_line2": "2 65942  51.6283  99.6415 0002950 304.2475  55.8240 15.64441775 11097"
      },
      "geometry": {
        "type": "Point",
        "coordinates": [
          -178.64328421470753,
          51.38482569325393
        ]
      }
    },
    {
      "type": "Feature",
      "properties": {
        "norad_id": 65943,
        "name": "E-KAGAKU-1",
        "group": "stations",
        "lat": 6.568454757893424,
        "lon": 104.73960490951151,
        "alt_km": 386.2321086570464,
        "timestamp": "2025-12-20T18:51:30.476965+00:00",
        "meta_object_name": "E-KAGAKU-1",
        "meta_object_id": "1998-067XQ",
        "meta_epoch": "2025-12-18T08:24:49.666176",
        "meta_mean_motion": 15.60193795,
        "meta_eccentricity": 0.00013451,
        "meta_inclination": 51.6302,
        "meta_ra_of_asc_node": 111.7666,
        "meta_arg_of_pericenter": 249.8249,
        "meta_mean_anomaly": 110.26,
        "meta_ephemeris_type": 0,
        "meta_classification_type": "U",
        "meta_norad_cat_id": 65943,
        "meta_element_set_no": 999,
        "meta_rev_at_epoch": 1073,
        "meta_bstar": 0.00084619625,
        "meta_mean_motion_dot": 0.00070368,
        "meta_mean_motion_ddot": 0,
        "tle_line1": "1 65943U 98067XQ  25352.35057484  .00070368  00000+0  84620-3 0  9996",
        "tle_line2": "2 65943  51.6302 111.7666 0001345 249.8249 110.2600 15.60193795 10732"
      },
      "geometry": {
        "type": "Point",
        "coordinates": [
          104.73960490951151,
          6.568454757893424
        ]
      }
    },
    {
      "type": "Feature",
      "properties": {
        "norad_id": 66052,
        "name": "HRC MONOBLOCK CAMERA",
        "group": "stations",
        "lat": -8.517484628325015,
        "lon": -71.81412357363727,
        "alt_km": 403.4551541407418,
        "timestamp": "2025-12-20T18:51:30.476975+00:00",
        "meta_object_name": "HRC MONOBLOCK CAMERA",
        "meta_object_id": "1998-067XR",
        "meta_epoch": "2025-12-20T11:52:12.970848",
        "meta_mean_motion": 15.54656464,
        "meta_eccentricity": 0.00024641,
        "meta_inclination": 51.6308,
        "meta_ra_of_asc_node": 102.825,
        "meta_arg_of_pericenter": 220.8988,
        "meta_mean_anomaly": 139.1819,
        "meta_ephemeris_type": 0,
        "meta_classification_type": "U",
        "meta_norad_cat_id": 66052,
        "meta_element_set_no": 999,
        "meta_rev_at_epoch": 1004,
        "meta_bstar": 0.00040451912,
        "meta_mean_motion_dot": 0.00026911,
        "meta_mean_motion_ddot": 0,
        "tle_line1": "1 66052U 98067XR  25354.49459457  .00026911  00000+0  40452-3 0  9991",
        "tle_line2": "2 66052  51.6308 102.8250 0002464 220.8988 139.1819 15.54656464 10048"
      },
      "geometry": {
        "type": "Point",
        "coordinates": [
          -71.81412357363727,
          -8.517484628325015
        ]
      }
    }
  ]
}